QIANFAN-60              
1 62790U 25016F   25320.78347119  .00000070  00000+0  89830-4 0  9998
2 62790  88.9738 105.7595 0017085  62.2751 298.0131 13.50976055 43726
QIANFAN-61              
1 62791U 25016G   25320.81619336  .00000136  00000+0  19120-3 0  9993
2 62791  88.9804 105.9013 0016021  61.7476 298.5290 13.50973204 43741
QIANFAN-62              
1 62792U 25016H   25320.82040074  .00000125  00000+0  17425-3 0  9996
2 62792  88.9751 105.7834 0017404  61.7812 298.5093 13.50983075 43739
QIANFAN-63              
1 62793U 25016J   25320.77101850  .00000154  00000+0  21918-3 0  9995
2 62793  88.9758 105.7383 0017539  66.8427 293.4570 13.50976217 43760
QIANFAN-64              
1 62794U 25016K   25320.81210735  .00000129  00000+0  18032-3 0  9999
2 62794  88.9744 105.7116 0015371  60.7099 299.5586 13.50978011 43768
QIANFAN-65              
1 62795U 25016L   25320.80804147  .00000137  00000+0  19395-3 0  9997
2 62795  88.9741 105.7390 0015229  62.3661 297.9034 13.50977012 43743
QIANFAN-66              
1 62796U 25016M   25320.76278206  .00000142  00000+0  20143-3 0  9993
2 62796  88.9761 105.7087 0016261  58.1528 302.1204 13.50981041 43780
QIANFAN-67              
1 62797U 25016N   25320.76695419  .00000157  00000+0  22408-3 0  9995
2 62797  88.9751 105.7364 0016357  64.4836 295.8004 13.50973954 43753
QIANFAN-68              
1 62798U 25016P   25320.75869448  .00000136  00000+0  19174-3 0  9993
2 62798  88.9754 105.7815 0016380  62.8758 297.4062 13.50976219 43736
QIANFAN-69              
1 62799U 25016Q   25320.77524681  .00000279  00000+0  41285-3 0  9999
2 62799  88.9734 105.6548 0017152  63.6800 296.6110 13.50979380 43773
QIANFAN-70              
1 62800U 25016R   25320.79149697  .00000142  00000+0  20117-3 0  9994
2 62800  88.9754 105.7860 0016573  54.7734 305.4966 13.50976783 43737
QIANFAN-71              
1 62801U 25016S   25320.78746890  .00000117  00000+0  16249-3 0  9995
2 62801  88.9747 105.7676 0017127  66.8686 293.4268 13.50977174 43737
QIANFAN-72              
1 62802U 25016T   25320.72988100  .00000143  00000+0  20225-3 0  9990
2 62802  88.9738 105.7895 0020494  73.2218 287.1179 13.50977067 43715
QIANFAN-73              
1 63159U 25046A   25320.75676906  .00000051  00000+0  61069-4 0  9990
2 63159  88.9752 322.7152 0014422 192.0542 168.0266 13.50973600 43902
QIANFAN-74              
1 63160U 25046B   25320.81430449  .00000065  00000+0  81328-4 0  9994
2 63160  88.9752 322.5977 0002028  87.6324 272.5059 13.50975592 43973
QIANFAN-75              
1 63161U 25046C   25320.80168336  .00000141  00000+0  19971-3 0  9996
2 63161  88.9754 322.8322 0015445 195.6259 164.4418 13.50987798 43842
QIANFAN-76              
1 63162U 25046D   25320.79795480 -.00000125  00000+0 -21270-3 0  9990
2 63162  88.9750 322.8135 0012987 195.3084 164.7676 13.50967075 43858
QIANFAN-77              
1 63163U 25046E   25320.81153089 -.00000294  00000+0 -22401-3 0  9991
2 63163  88.9750 321.0316 0015513 154.6747 205.5193 13.96082886 44838
QIANFAN-78              
1 63164U 25046F   25320.76497808  .00000011  00000+0 -21241-5 0  9995
2 63164  88.9752 322.6812 0014301 198.2705 161.7934 13.50974630 43923
QIANFAN-79              
1 63165U 25046G   25320.79366484  .00000058  00000+0  71785-4 0  9991
2 63165  88.9756 322.7847 0014041 196.2281 163.8422 13.50975245 43877
QIANFAN-80              
1 63166U 25046H   25320.81018843  .00000117  00000+0  16260-3 0  9990
2 63166  88.9753 322.4904 0012876 200.2568 159.8074 13.50978751 44036
QIANFAN-81              
1 63167U 25046J   25320.78900557  .00000147  00000+0  20961-3 0  9995
2 63167  88.9753 322.5607 0014259 188.7013 171.3893 13.50995311 43982
QIANFAN-82              
1 63168U 25046K   25320.82259998  .00000110  00000+0  15242-3 0  9993
2 63168  88.9753 322.6011 0012172 195.7541 164.3233 13.50975526 43974
QIANFAN-83              
1 63169U 25046L   25320.76495596  .00000098  00000+0  11123-3 0  9992
2 63169  88.9754 322.4344 0013863 182.7440 177.3644 13.61969064 44068
QIANFAN-84              
1 63170U 25046M   25320.77654250 -.00000032  00000+0 -67884-4 0  9995
2 63170  88.9750 322.7386 0015226 193.9024 166.1710 13.50986287 43896
QIANFAN-85              
1 63171U 25046N   25320.77314132  .00000146  00000+0  20732-3 0  9992
2 63171  88.9752 322.6108 0012542 194.9853 165.0928 13.50980150 43969
QIANFAN-86              
1 63172U 25046P   25320.78145106  .00000125  00000+0  17441-3 0  9997
2 63172  88.9755 322.4713 0010301 197.9297 162.1492 13.50977045 44042
QIANFAN-87              
1 63173U 25046Q   25320.82676938  .00000054  00000+0  64960-4 0  9995
2 63173  88.9751 322.5795 0011114 193.1523 166.9340 13.50970786 43984
QIANFAN-88              
1 63174U 25046R   25320.76913822  .00000116  00000+0  16072-3 0  9994
2 63174  88.9754 322.5393 0011273 202.0570 158.0098 13.50974841 44002
QIANFAN-89              
1 63175U 25046S   25320.80596828  .00000117  00000+0  16324-3 0  9994
2 63175  88.9754 322.7245 0015879 194.3689 165.7013 13.50977476 43908
QIANFAN-90              
1 63176U 25046T   25320.76064119  .00000016  00000+0  60876-5 0  9994
2 63176  88.9754 322.7016 0012902 191.1228 168.9639 13.50974543 43915
QIANFAN-91              
1 66033U 25233A   25320.52566419  .00000897  00000+0  41768-3 0  9995
2 66033  88.9967  65.0547 0017244 115.5951 244.7023 14.19602684  4309
QIANFAN-92              
1 66034U 25233B   25320.80826384  .00000899  00000+0  42190-3 0  9999
2 66034  88.9961  65.0202 0016817 116.8388 243.4523 14.19196980  4347
QIANFAN-93              
1 66035U 25233C   25320.52108799  .00001027  00000+0  47591-3 0  9996
2 66035  88.9965  65.0522 0016366 117.3353 242.9505 14.20012576  4304
QIANFAN-94              
1 66036U 25233D   25320.80570245  .00001150  00000+0  54001-3 0  9998
2 66036  88.9963  65.0201 0016294 115.6290 244.6585 14.19364920  4340
QIANFAN-95              
1 66037U 25233E   25320.79239758  .00001168  00000+0  48153-3 0  9998
2 66037  88.9962  65.0181 0016263 118.1975 242.0863 14.26181801  4345
QIANFAN-96              
1 66038U 25233F   25320.80600090  .00000787  00000+0  37036-3 0  9996
2 66038  88.9964  65.0200 0017054 118.8211 241.4693 14.18953817  4348
QIANFAN-97              
1 66039U 25233G   25320.80390639  .00001265  00000+0  59353-3 0  9990
2 66039  88.9964  65.0199 0016867 118.4836 241.8055 14.19486963  4346
QIANFAN-98              
1 66040U 25233H   25320.79153657  .00001156  00000+0  47618-3 0  9997
2 66040  88.9963  65.0181 0016118 118.3348 241.9474 14.26212397  4346
QIANFAN-99              
1 66041U 25233J   25320.80362332  .00000900  00000+0  41879-3 0  9991
2 66041  88.9963  65.0196 0016491 116.5127 243.7756 14.19698102  4349
QIANFAN-100             
1 66042U 25233K   25320.79107348  .00001146  00000+0  47175-3 0  9992
2 66042  88.9963  65.0181 0016719 118.9304 241.3569 14.26243415  4347
QIANFAN-101             
1 66043U 25233L   25320.78518178  .00000684  00000+0  27671-3 0  9994
2 66043  88.9963  65.0171 0016766 117.0400 243.2507 14.26650722  4342
QIANFAN-102             
1 66044U 25233M   25320.44665013  .00001097  00000+0  49447-3 0  9993
2 66044  88.9949  65.0526 0018620 119.1421 241.1636 14.21448493  4297
QIANFAN-103             
1 66045U 25233N   25320.66179300  .00000817  00000+0  38287-3 0  9996
2 66045  88.9963  65.0355 0016558 117.7013 242.5859 14.19218744  4320
QIANFAN-104             
1 66046U 25233P   25320.51687388  .00001070  00000+0  49030-3 0  9991
2 66046  88.9960  65.0511 0016480 119.8273 240.4559 14.20601354  4304
QIANFAN-105             
1 66047U 25233Q   25320.44703368  .00000475  00000+0  21415-3 0  9996
2 66047  88.9960  65.0589 0016804 119.1742 241.1132 14.20542307  4299
QIANFAN-106             
1 66048U 25233R   25320.80004889  .00000940  00000+0  43850-3 0  9993
2 66048  88.9962  65.0191 0017372 117.9089 242.3863 14.19584225  4345
QIANFAN-107             
1 66049U 25233S   25320.58675552  .00001004  00000+0  46065-3 0  9993
2 66049  88.9967  65.0433 0017300 117.1244 243.1713 14.20506604  4313
QIANFAN-108             
1 66050U 25233T   25320.72897138  .00000681  00000+0  30750-3 0  9991
2 66050  88.9963  65.0274 0016937 118.0350 242.2556 14.20963112  4335
